place_id,zipcode,place_type,place_name,latitude,longitude,website_url,property_address,map_url,phone,opening_hours
ChIJpRH8wD6_9YgRMaIu7_pan30,30043,health,New Hope Primary Care,33.9349079,-83.9564783,http://www.newhopeprimarycare.com/,"930 New Hope Rd #10, Lawrenceville, GA 30045, USA",https://maps.google.com/?cid=9052053809839120945,(770) 868-5160,
ChIJtX_PNNm-9YgRUtXmcUNo0fY,30097,doctor,Clearview Primary Care at Grayson,33.8945101,-83.9571664,http://www.clearviewprimarycare.com/,"2065 Grayson Hwy, Grayson, GA 30017, USA",https://maps.google.com/?cid=17785111042345850194,(678) 376-9309,"Monday: 8:00 AM  5:00 PM, Tuesday: 8:00 AM  5:00 PM, Wednesday: 8:00 AM  5:00 PM, Thursday: 8:00 AM  5:00 PM, Friday: 8:00 AM  5:00 PM, Saturday: Closed, Sunday: Closed"
ChIJhxd9Mdm-9YgRtbGueERGeUg,30017,doctor,Smart Primary Care,33.9334729,-83.9771749,http://thelawrencevilleprimarycare.com/,"696 Grayson Hwy, Lawrenceville, GA 30046, USA",https://maps.google.com/?cid=5222282502809235893,(770) 450-4945,"Monday: 8:00 AM  6:00 PM, Tuesday: 8:00 AM  6:00 PM, Wednesday: 8:00 AM  6:00 PM, Thursday: 8:00 AM  6:00 PM, Friday: 8:00 AM  6:00 PM, Saturday: 8:00 AM  4:00 PM, Sunday: Closed"
ChIJfQfnsBlL9IgRVSYyJo-K4rY,30013,school,Peachtree Academy Primary School,33.625787,-83.9782584,http://www.peachtreeacademy.com/,"1801 Ellington Rd SE, Conyers, GA 30013, USA",https://maps.google.com/?cid=13178247807065269845,(770) 860-8900,
ChIJDzrSXZO-9YgR_TipEpf_iZs,30043,health,Four Corners Primary Care Center,33.9435499,-83.9941477,,"175 Gwinnett Dr #213, Lawrenceville, GA 30046, USA",https://maps.google.com/?cid=11207770172006414589,(770) 299-1066,"Monday: 8:00 AM  6:00 PM, Tuesday: 8:00 AM  6:00 PM, Wednesday: 8:00 AM  6:00 PM, Thursday: 8:00 AM  6:00 PM, Friday: 8:00 AM  6:00 PM, Saturday: Closed, Sunday: Closed"
ChIJg6C8zJK09YgRJzoQupN-gNE,30012,doctor,Georgia Primary and Urgent Care,33.6824738,-83.9958052,http://www.conyersurgentcare.com/,"1301 Sigman Rd NE #230, Conyers, GA 30012, USA",https://maps.google.com/?cid=15096205123892820519,(678) 609-4912,"Monday: 8:00 AM  5:00 PM, Tuesday: 8:00 AM  5:00 PM, Wednesday: 8:00 AM  5:00 PM, Thursday: 8:00 AM  5:00 PM, Friday: 8:00 AM  5:00 PM, Saturday: 8:00 AM  12:00 PM, Sunday: Closed"
ChIJlTm7hWm-9YgRm25miR2pmK8,30043,doctor,"Dr. Riaz A. Syed, MD",33.9787534,-83.997655,http://www.pccofga.com/,"870 Collins Hill Rd, Lawrenceville, GA 30043, USA",https://maps.google.com/?cid=12653049097421745819,(678) 377-0900,
ChIJmza6IgeU9YgRZYzJpup240w,30004,doctor,Sills Primary Care,34.0959539,-83.9997896,http://sillsprimarycare.com/,"4295 Buford Dr NE, Buford, GA 30518, USA",https://maps.google.com/?cid=5540402716788493413,(770) 831-5659,
ChIJybYwevu-9YgRRtRnTBTNj7M,30043,doctor,"Georgia Clinic, PC",33.9193322,-84.0001012,http://www.gaclinicpc.com/,"845 Scenic Hwy N #100, Lawrenceville, GA 30046, USA",https://maps.google.com/?cid=12938785741523637318,(770) 962-6443,"Monday: 9:00 AM  5:00 PM, Tuesday: 9:00 AM  5:00 PM, Wednesday: 9:00 AM  5:00 PM, Thursday: 9:00 AM  5:00 PM, Friday: 9:00 AM  5:00 PM, Saturday: Closed, Sunday: Closed"
ChIJv5bVGHy-9YgRL5xURlN6_rU,30043,pharmacy,Gwinnett Clinic,33.967461,-84.0111454,http://www.gwinnettclinic.com/our-locations/lawrenceville-main-clinic/,"475 Philip Blvd, Lawrenceville, GA 30046, USA",https://maps.google.com/?cid=13114053663030287407,(770) 995-3300,"Monday: 9:00 AM  6:00 PM, Tuesday: 9:00 AM  6:00 PM, Wednesday: 9:00 AM  6:00 PM, Thursday: 9:00 AM  6:00 PM, Friday: 9:00 AM  6:00 PM, Saturday: 10:00 AM  4:00 PM, Sunday: 10:00 AM  2:00 PM"
ChIJV2K3bX6-9YgRT6s1I5Ckiy4,30097,hospital,Adult Primary Care Associates of Greater Gwinnett,33.9649571,-84.0122447,http://www.apcagg.com/,"575 Professional Dr, Lawrenceville, GA 30046, USA",https://maps.google.com/?cid=3353955286480431951,(770) 670-4285,"Monday: 9:00 AM  4:00 PM, Tuesday: 9:00 AM  4:00 PM, Wednesday: 9:00 AM  4:00 PM, Thursday: 9:00 AM  4:00 PM, Friday: 9:00 AM  1:00 PM, Saturday: Closed, Sunday: Closed"
ChIJFzZaBlyz9YgRQCzX_eg1dCM,30013,physiotherapist,Concentra Urgent Care,33.6457217,-84.0123727,http://www.concentra.com/?utm_source=Yext&utm_medium=Listings&utm_campaign=Yext%20listing,"1680 Highway 138 SE, Suites E-F, Conyers, GA 30013, USA",https://maps.google.com/?cid=2554726163433335872,(770) 760-0066,"Monday: 7:30 AM  6:00 PM, Tuesday: 7:30 AM  6:00 PM, Wednesday: 7:30 AM  6:00 PM, Thursday: 7:30 AM  6:00 PM, Friday: 7:30 AM  6:00 PM, Saturday: 10:00 AM  3:00 PM, Sunday: Closed"
ChIJD_rlaoZL9IgRAKGiBOQ76bo,30094,doctor,Hoodbhoy Nadeem N MD,33.5974044,-84.0125219,http://rockdalefamilypractice.com/,"2020 Honey Creek Pkwy SE, Conyers, GA 30013, USA",https://maps.google.com/?cid=13468362011144528128,(770) 929-0813,
ChIJCcx7GH6-9YgRaoG_xHq4060,30043,doctor,Greater Atlanta Primary Care,33.96387,-84.012752,,"601 Professional Dr # 180, Lawrenceville, GA 30046, USA",https://maps.google.com/?cid=12525557826073887082,(770) 822-4120,
ChIJcfbCCIlL9IgRWGY3JPlFtgk,30385,doctor,"Dr. Stacy Olliff, MD",33.5924455,-84.013844,,"1101 NorTec Dr SE, Conyers, GA 30013, USA",https://maps.google.com/?cid=699823728459474520,(678) 374-7514,
ChIJQ1QXG4lL9IgRFkKQGvyk_iw,30013,doctor,Eagles Landing Family Practice: Conyers,33.592522,-84.013853,http://www.elfp.com/conyers-office/,"1101 Nor Tec Drive, Conyers, GA 30013, USA",https://maps.google.com/?cid=3242210184437711382,(678) 374-7514,"Monday: 8:00 AM  7:00 PM, Tuesday: 8:00 AM  7:00 PM, Wednesday: 8:00 AM  7:00 PM, Thursday: 8:00 AM  7:00 PM, Friday: 8:00 AM  5:00 PM, Saturday: 10:00 AM  2:00 PM, Sunday: 12:00  4:00 PM"
ChIJXamsBCq89YgRXbQ_rdfTunQ,30043,doctor,Priority Primary Care,33.958359,-84.0174019,,"771 Old Norcross Rd # 110, Lawrenceville, GA 30046, USA",https://maps.google.com/?cid=8411268177345885277,(770) 963-5775,
ChIJgzKJ7VOR9YgRKicg4BS7u5M,31150,doctor,North Atlanta Primary Care,34.1014083,-84.0226977,http://www.napc.md/,"4700 Nelson Brogdon Blvd NE, Buford, GA 30518, USA",https://maps.google.com/?cid=10645307842554242858,(770) 442-1911,"Monday: 7:30 AM  5:00 PM, Tuesday: 7:30 AM  5:00 PM, Wednesday: 7:30 AM  5:00 PM, Thursday: 7:30 AM  5:00 PM, Friday: 7:30 AM  5:00 PM, Saturday: Closed, Sunday: Closed"
ChIJjfyqPMm99YgR_L0MtJbo7go,30043,doctor,Hillandale Primary Care & Laser Center,33.9719356,-84.0334991,http://hillandaleprimarycare.com/,"1950 Riverside Pkwy #100, Lawrenceville, GA 30043, USA",https://maps.google.com/?cid=787822718799887868,(770) 322-9660,"Monday: 5:00  8:00 PM, Tuesday: 5:00  8:00 PM, Wednesday: 7:30 AM  4:00 PM, Thursday: 4:00  8:00 PM, Friday: 7:30 AM  4:00 PM, Saturday: 8:30 AM  1:00 PM, Sunday: Closed"
ChIJYRdb0vK99YgR3PGkFjpbW_U,30005,doctor,Northside Primary Care Inc,34.000047,-84.037689,http://northsideprimarycare.com/,"2013 Lawrenceville-Suwanee Rd, Suwanee, GA 30024, USA",https://maps.google.com/?cid=17679825067219153372,(678) 377-5300,"Monday: 8:30 AM  4:00 PM, Tuesday: Closed, Wednesday: 8:30 AM  4:00 PM, Thursday: Closed, Friday: 8:30 AM  1:00 PM, Saturday: Closed, Sunday: Closed"
ChIJVYOaXzuW9YgRqj9bEi6cvVQ,30024,hospital,Premier Immediate Care,34.021514,-84.0431797,http://www.pic.md/,"2696 Lawrenceville-Suwanee Rd, Suwanee, GA 30024, USA",https://maps.google.com/?cid=6106208391474659242,(678) 376-1300,
ChIJfxoKO-mw9YgRLRREiddKdjY,30013,doctor,Centerville Primary Care: DeKalb Medical Physicians Group,33.802201,-84.044047,http://www.centervilleprimarycare.com/,"3555 Centerville Hwy Suite 100, Snellville, GA 30039, USA",https://maps.google.com/?cid=3924406414881330221,(770) 985-9957,"Monday: 8:30 AM  4:30 PM, Tuesday: 8:30 AM  5:30 PM, Wednesday: 8:30 AM  4:30 PM, Thursday: 8:30 AM  5:30 PM, Friday: 8:30 AM  12:00 PM, Saturday: Closed, Sunday: Closed"
ChIJoxCcwFC89YgRu04upmmjrNk,30043,doctor,Sugarloaf Urgent Care & Primary Care,33.955478,-84.0525508,http://www.sugarloafurgentcare.com/,"4835 Sugarloaf Pkwy, Lawrenceville, GA 30045, USA",https://maps.google.com/?cid=15685091276379541179,(470) 206-0887,"Monday: 9:00 AM  7:00 PM, Tuesday: 9:00 AM  7:00 PM, Wednesday: 9:00 AM  7:00 PM, Thursday: 9:00 AM  7:00 PM, Friday: 9:00 AM  7:00 PM, Saturday: 9:00 AM  4:00 PM, Sunday: Closed"
ChIJfyviuAW99YgRBbk01iUxbj0,30385,doctor,Perisseia Primary Care,33.9753591,-84.0653929,http://www.perisseiaprimarycare.com/,"1655 Lebanon Rd NW, Lawrenceville, GA 30043, USA",https://maps.google.com/?cid=4426529522329106693,(770) 682-2024,"Monday: 8:00 AM  5:00 PM, Tuesday: 8:00 AM  5:00 PM, Wednesday: 8:00 AM  5:00 PM, Thursday: 8:00 AM  5:00 PM, Friday: 8:00 AM  5:00 PM, Saturday: Closed, Sunday: Closed"
ChIJ_e5RVoSX9YgRZ-lSZV3YXV8,30024,hospital,Emory At Suwanee,34.065522,-84.073294,http://www.emoryhealthcare.org/emory-specialty-associates/emory-gwinnett-family-physicians.html,"345 Peachtree Industrial Blvd #1101, Suwanee, GA 30024, USA",https://maps.google.com/?cid=6871886502080735591,(770) 932-0547,"Monday: 7:30 AM  5:00 PM, Tuesday: 7:30 AM  5:00 PM, Wednesday: 7:30 AM  5:00 PM, Thursday: 7:30 AM  5:00 PM, Friday: 7:30 AM  12:00 PM, Saturday: Closed, Sunday: Closed"
ChIJf4drg1dL9IgRitB1lbz-2AU,30094,hospital,The Walk In Clinic,33.617234,-84.081391,http://www.thewalkinclinicga.com/,"2890 GA-212, Conyers, GA 30094, USA",https://maps.google.com/?cid=421366651073974410,(770) 929-9150,"Monday: 8:30 AM  5:30 PM, Tuesday: 8:30 AM  5:30 PM, Wednesday: 8:30 AM  5:30 PM, Thursday: 8:30 AM  5:30 PM, Friday: 8:30 AM  2:00 PM, Saturday: 8:00 AM  12:00 PM, Sunday: Closed"
ChIJ-6SHs52X9YgR6l6WX0BuDig,30024,doctor,Suwanee Family Physicians,34.053088,-84.086382,http://www.suwaneedoctor.com/,"960 Peachtree Industrial Blvd, Suwanee, GA 30024, USA",https://maps.google.com/?cid=2886365633951719146,(770) 831-8191,"Monday: 8:00 AM  6:00 PM, Tuesday: 8:00 AM  6:00 PM, Wednesday: 8:00 AM  6:00 PM, Thursday: 8:00 AM  6:00 PM, Friday: 8:00 AM  6:00 PM, Saturday: 8:00 AM  1:00 PM, Sunday: Closed"
ChIJGfLgQo6y9YgRkR_dWskIu2Q,30013,doctor,Stonecrest Primary Care,33.690775,-84.086834,http://www.stonecrestprimarycare.com/,"8225 Mall Pkwy #100, Lithonia, GA 30038, USA",https://maps.google.com/?cid=7258404885343575953,(770) 981-2100,"Monday: 7:30 AM  6:00 PM, Tuesday: 7:30 AM  6:00 PM, Wednesday: 7:30 AM  6:00 PM, Thursday: 7:30 AM  6:00 PM, Friday: 7:30 AM  5:00 PM, Saturday: 8:00 AM  2:00 PM, Sunday: Closed"
ChIJo_98JM669YgRkShA-KJtjdk,30038,doctor,Killian Hill Primary Care: DeKalb Medical Physicians Group,33.866705,-84.094317,http://www.killianhillprimarycare.com/,"4120 Five Forks Trickum Rd SW #104, Lilburn, GA 30047, USA",https://maps.google.com/?cid=15676306424663648401,(770) 935-9546,"Monday: 8:30 AM  4:30 PM, Tuesday: 8:30 AM  4:30 PM, Wednesday: 8:30 AM  4:30 PM, Thursday: 8:30 AM  4:30 PM, Friday: 8:30 AM  4:30 PM, Saturday: Closed, Sunday: Closed"
ChIJI792DomX9YgR4-d8nS8Qyw4,30024,pharmacy,Gwinnett Urgent Care,34.041596,-84.095818,http://www.gwinnetturgentcare.com/,"1300 Peachtree Industrial Blvd #4101, Suwanee, GA 30024, USA",https://maps.google.com/?cid=1065963533494970339,(770) 831-5525,"Monday: 8:00 AM  8:00 PM, Tuesday: 8:00 AM  8:00 PM, Wednesday: 8:00 AM  8:00 PM, Thursday: 8:00 AM  8:00 PM, Friday: 8:00 AM  8:00 PM, Saturday: 10:00 AM  6:00 PM, Sunday: 10:00 AM  6:00 PM"
ChIJI792DomX9YgRORU4cLEDmuI,30023,hospital,Sugarloaf Medical P.C. Internal Medicine & Primary Care,34.0418621,-84.0960644,http://www.sugarloafmedical.com/,"1300 Peachtree Industrial Blvd #4203, Suwanee, GA 30024, USA",https://maps.google.com/?cid=16328367459611972921,(770) 831-3018,"Monday: 8:00 AM  6:30 PM, Tuesday: 8:00 AM  6:30 PM, Wednesday: 8:00 AM  6:30 PM, Thursday: 8:00 AM  6:30 PM, Friday: 8:00 AM  6:30 PM, Saturday: Closed, Sunday: Closed"
ChIJI792DomX9YgRyw11BCM53uk,30024,doctor,"Doctor Shukri George Makhlouf, MD",34.0413708,-84.0980936,http://sugarloafmedical.com/,"1300 Peachtree Industrial Blvd, Suwanee, GA 30024, USA",https://maps.google.com/?cid=16851969678228393419,(770) 831-3018,"Monday: 8:00 AM  6:30 PM, Tuesday: 8:00 AM  6:30 PM, Wednesday: 8:00 AM  6:30 PM, Thursday: 8:00 AM  6:30 PM, Friday: 8:00 AM  6:30 PM, Saturday: Closed, Sunday: Closed"
ChIJ27lT_rik9YgRVmgaVy_1q1E,30097,doctor,Lifeline Primary Care - Dr. Aziz Pirani,33.9044172,-84.1142823,,"4025 Lawrenceville Hwy, Lilburn, GA 30047, USA",https://maps.google.com/?cid=5885066921763301462,(770) 559-3501,"Monday: 8:30 AM  5:30 PM, Tuesday: 8:30 AM  5:30 PM, Wednesday: 8:30 AM  5:30 PM, Thursday: 8:30 AM  5:30 PM, Friday: 9:00 AM  1:00 PM, Saturday: 9:00 AM  1:00 PM, Sunday: Closed"
ChIJtYmdSvKv9YgREiIWAPJE0II,30013,doctor,Mountain Park Primary Care Center,33.826535,-84.118445,,"1755 E Park Pl Blvd, Stone Mountain, GA 30087, USA",https://maps.google.com/?cid=9426109826260673042,(770) 469-6892,
ChIJ2cp73ZOk9YgRRWqQAixy4gE,30047,doctor,"Craig G. Heigerick, D.O.: Beaver Ruin Primary Care",33.907368,-84.128996,http://www.beaverruinprimarycare.com/,"615 Beaver Ruin Rd Suite B, Lilburn, GA 30047, USA",https://maps.google.com/?cid=135796472121682501,(770) 935-8616,"Monday: 8:00 AM  5:00 PM, Tuesday: 8:00 AM  5:00 PM, Wednesday: 8:00 AM  12:00 PM, Thursday: 8:00 AM  5:00 PM, Friday: 8:00 AM  5:00 PM, Saturday: Closed, Sunday: Closed"
ChIJ1QKy1FWs9YgREhMPzK5_Tf4,30320,doctor,Hillandale Primary Care,33.705581,-84.148504,http://hillandaleprimarycare.com/,"5900 Hillandale Dr #215, Lithonia, GA 30058, USA",https://maps.google.com/?cid=18324442847564993298,(770) 322-9660,"Monday: 7:30 AM  4:00 PM, Tuesday: 7:30 AM  4:00 PM, Wednesday: 7:30 AM  7:00 PM, Thursday: 7:30 AM  7:00 PM, Friday: 7:30 AM  5:00 PM, Saturday: 8:30 AM  1:00 PM, Sunday: Closed"
ChIJHe4hAVSs9YgRkNKO8JJORXc,30320,doctor,Miller Grove Primary Care: DeKalb Medical Physicians Group,33.708196,-84.148539,http://www.millergroveprimarycare.com/,"2745 Dekalb Medical Pkwy #110, Lithonia, GA 30058, USA",https://maps.google.com/?cid=8594361856914543248,(770) 593-2382,"Monday: 9:00 AM  5:00 PM, Tuesday: 9:00 AM  5:00 PM, Wednesday: 9:00 AM  5:00 PM, Thursday: 9:00 AM  5:00 PM, Friday: 9:00 AM  5:00 PM, Saturday: Closed, Sunday: Closed"
ChIJs09JW2yZ9YgRdpoJM06mgKI,30023,doctor,"Traxler Primary Care, LLC",34.084912,-84.157564,http://www.traxlerprimarycare.com/,"5400 Laurel Springs Pkwy #1402, Suwanee, GA 30024, USA",https://maps.google.com/?cid=11709541885957216886,(678) 965-0586,"Monday: 8:30 AM  5:00 PM, Tuesday: 8:30 AM  5:00 PM, Wednesday: 8:30 AM  5:00 PM, Thursday: 8:30 AM  5:00 PM, Friday: 8:30 AM  5:00 PM, Saturday: Closed, Sunday: Closed"
ChIJfceimUGi9YgR00MagGxNcng,30097,doctor,Gwinnett Clinic,33.9901893,-84.160359,http://www.gwinnettclinic.com/our-locations/duluth/pleasant-hill-clinic/,"3490 Pleasant Hill Rd, Duluth, GA 30096, USA",https://maps.google.com/?cid=8679084560297378771,(770) 814-2870,"Monday: 9:00 AM  1:00 PM, 2:00  6:00 PM, Tuesday: 9:00 AM  1:00 PM, 2:00  6:00 PM, Wednesday: 9:00 AM  1:00 PM, 2:00  6:00 PM, Thursday: 9:00 AM  1:00 PM, 2:00  6:00 PM, Friday: 9:00 AM  1:00 PM, 2:00  6:00 PM, Saturday: 10:00 AM  1:00 PM, 1:00  4:00 PM, Sunday: 10:00 AM  12:00 PM, 12:00  2:00 PM"
ChIJa17jnm2i9YgRQUGy-pn9Q-8,30004,doctor,Mason Primary Care,34.0026038,-84.1615818,http://www.masonprimarycare.com/,"3500 McClure Bridge Rd, Duluth, GA 30096, USA",https://maps.google.com/?cid=17240902636282200385,(770) 476-3636,
ChIJk-FuBmeZ9YgRQF-JSQ_TO8Y,30004,hospital,Georgia Clinic Primary Care - Mathis Airport Pkwy,34.0956955,-84.1625252,http://medicalfacilitysuwanee.com/,"3135 Mathis Airport Pkwy Suite 200, Suwanee, GA 30024, USA",https://maps.google.com/?cid=14284242705747369792,(470) 253-1188,"Monday: 9:00 AM  6:00 PM, Tuesday: 9:00 AM  5:00 PM, Wednesday: 9:00 AM  5:00 PM, Thursday: 9:00 AM  6:00 PM, Friday: 9:00 AM  5:00 PM, Saturday: 9:00 AM  1:00 PM, Sunday: Closed"
ChIJjdj7HyWZ9YgRyCjMXIVIz7I,30005,doctor,"Dr. Tanya O. Pandya, DO",34.0689903,-84.1632342,http://drtanyapandya.com/,"3925 Johns Creek Ct, Suwanee, GA 30024, USA",https://maps.google.com/?cid=12884596796555012296,(770) 709-6922,
ChIJIQwTqQyk9YgRsOB8L1layc8,30340,hospital,Four Corners Primary Care Centr,33.920383,-84.165037,,"5300 Oakbrook Pkwy #130, Norcross, GA 30093, USA",https://maps.google.com/?cid=14972597775265226928,(770) 806-2928,"Monday: 8:00 AM  5:00 PM, Tuesday: 8:00 AM  5:00 PM, Wednesday: 8:00 AM  5:00 PM, Thursday: 8:00 AM  5:00 PM, Friday: 8:00 AM  5:00 PM, Saturday: Closed, Sunday: Closed"
ChIJRYnQXAqi9YgR_6tNHBOI530,30004,health,Lifeline Primary Care,34.0135947,-84.1678753,http://www.lifelineprimarycare.com/,"4855 River Green Pkwy #700, Duluth, GA 30096, USA",https://maps.google.com/?cid=9072369590021762047,(770) 545-8332,"Monday: 8:30 AM  5:30 PM, Tuesday: 8:30 AM  5:30 PM, Wednesday: 8:30 AM  5:30 PM, Thursday: 8:30 AM  5:30 PM, Friday: 9:00 AM  1:00 PM, Saturday: 9:00 AM  1:00 PM, Sunday: Closed"
ChIJG_dXgzyZ9YgRsf-EdNk9kaE,30004,doctor,North Atlanta Primary Care,34.073079,-84.169548,http://www.napc.md/,"4235 Johns Creek Pkwy, Suwanee, GA 30024, USA",https://maps.google.com/?cid=11642154515901513649,(770) 442-1911,"Monday: 7:30 AM  5:00 PM, Tuesday: 7:30 AM  5:00 PM, Wednesday: 7:30 AM  5:00 PM, Thursday: 7:30 AM  5:00 PM, Friday: 7:30 AM  5:00 PM, Saturday: Closed, Sunday: Closed"
ChIJ73FLV2Ks9YgRLEIdFztaT2A,30035,health,Primary Medical Care Group,33.706094,-84.1722061,http://www.dekalbmedical.org/find-doctor/i/ibraheem-musibau-abiodun,"5322 Snapfinger Park Dr, Decatur, GA 30035, USA",https://maps.google.com/?cid=6939864760638587436,(404) 289-9784,
ChIJy20LKiWZ9YgR-UXLiYA-ApA,30004,hospital,Johns Creek Primary Care Physicians,34.0714064,-84.1736231,http://www.johnscreekprimarycare.com/,"4365 Johns Creek Pkwy, Suwanee, GA 30024, USA",https://maps.google.com/?cid=10376925213203580409,(678) 957-1910,"Monday: 7:00 AM  12:00 PM, 2:00  4:00 PM, Tuesday: 7:00 AM  12:00 PM, 2:00  4:00 PM, Wednesday: 7:00 AM  12:00 PM, 2:00  4:00 PM, Thursday: 7:00 AM  12:00 PM, 2:00  4:00 PM, Friday: 7:00 AM  12:00 PM, 2:00  4:00 PM, Saturday: Closed, Sunday: Closed"
ChIJK8vu0HOm9YgRol_uIzWsI3Y,30340,doctor,Gwinnett Clinic,33.8670129,-84.1924289,http://www.gwinnettclinic.com/our-locations/tucker-clinic/,"4870 Lawrenceville Hwy, Tucker, GA 30084, USA",https://maps.google.com/?cid=8512837064896438178,(770) 496-1429,"Monday: 9:00 AM  1:00 PM, 2:00  6:00 PM, Tuesday: 9:00 AM  1:00 PM, 2:00  6:00 PM, Wednesday: 9:00 AM  1:00 PM, 2:00  6:00 PM, Thursday: 9:00 AM  1:00 PM, 2:00  6:00 PM, Friday: 9:00 AM  1:00 PM, 2:00  6:00 PM, Saturday: Closed, Sunday: Closed"
ChIJ4UNxgN2e9YgRXaU25B1rLvE,30004,hospital,Georgia Clinic Primary Care - Jones Bridge,34.0696448,-84.2067745,http://alpharettamedicalcenter.com/,"11912 Jones Bridge Rd, Alpharetta, GA 30005, USA",https://maps.google.com/?cid=17378945788196332893,(678) 212-1167,"Monday: 9:00 AM  7:00 PM, Tuesday: 9:00 AM  7:00 PM, Wednesday: 9:00 AM  7:00 PM, Thursday: 9:00 AM  7:00 PM, Friday: 9:00 AM  7:00 PM, Saturday: 9:00 AM  1:00 PM, Sunday: Closed"
ChIJT2gfgIWm9YgRI0KiIaFCyZU,30340,doctor,Wellness Primary Care,33.9076943,-84.2069031,,"5456 Jimmy Carter Blvd # 240, Norcross, GA 30093, USA",https://maps.google.com/?cid=10793231241791554083,(678) 380-9889,
ChIJEcBnfeSo9YgRRqT5NqDax0E,30309,doctor,Stone Mountain Primary Care,33.8011126,-84.2145374,http://www.stonemountainprimarycare.com/,"5462 Memorial Dr #202, Stone Mountain, GA 30083, USA",https://maps.google.com/?cid=4739997514482689094,(404) 292-5676,"Monday: 8:00 AM  5:00 PM, Tuesday: 8:00 AM  5:00 PM, Wednesday: 8:00 AM  5:00 PM, Thursday: 8:00 AM  5:00 PM, Friday: 8:00 AM  5:00 PM, Saturday: Closed, Sunday: Closed"
ChIJn2pvTXSm9YgRLN0ib6dsjqA,30358,doctor,North Tucker Primary Care: DeKalb Medical Physicians Group,33.8550543,-84.2157113,http://www.northtuckerprimarycare.com/,"5019 Lavista Rd, Tucker, GA 30084, USA",https://maps.google.com/?cid=11569303959141276972,(678) 534-0452,"Monday: 8:00 AM  5:00 PM, Tuesday: 8:00 AM  5:00 PM, Wednesday: 8:00 AM  5:00 PM, Thursday: 11:30 AM  8:00 PM, Friday: 8:00 AM  12:00 PM, Saturday: Closed, Sunday: Closed"
ChIJ8z6yUa6r9YgRHGJQPuDW0Ec,30032,doctor,Primary Medical Care Group,33.715128,-84.220453,http://www.dekalbmedical.org/find-doctor/i/ibraheem-musibau-abiodun,"4150 Snapfinger Woods Dr #230, Decatur, GA 30035, USA",https://maps.google.com/?cid=5174872230455173660,(404) 289-9784,
ChIJJ1hDejGm9YgRUV6ZZVcFClI,30358,doctor,Lavista Primary Care,33.854271,-84.222054,,"4865 Lavista Rd, Tucker, GA 30084, USA",https://maps.google.com/?cid=5911543333802040913,(770) 270-0290,
ChIJxyMPQSmh9YgRRrRNC99uJKE,30023,doctor,Buford-Norcross Primary Care,33.9357011,-84.2235755,http://www.dekalbmedical.org/find-doctor/b/bao-christine-l,"777 W Peachtree St, Norcross, GA 30071, USA",https://maps.google.com/?cid=11611527643514385478,(770) 246-6100,
ChIJMbAK4auf9YgRBD5IumAhi1k,30005,doctor,Georgia Clinic PC,34.0573011,-84.2316082,http://www.gaclinicpc.com/,"11378 State Bridge Rd, Alpharetta, GA 30022, USA",https://maps.google.com/?cid=6452287590464241156,(770) 772-4020,
ChIJ6aHt062f9YgRiKP4Qu653GE,30005,doctor,"Dr. Dharmaraj H. Patil, MD",34.057653,-84.236041,http://www.dekalbmedical.org/find-doctor/p/patil-dharmaraj-h,"11379 Southbridge Pkwy, Alpharetta, GA 30022, USA",https://maps.google.com/?cid=7051715549532300168,(770) 777-0750,"Monday: 8:00 AM  5:30 PM, Tuesday: 8:00 AM  5:30 PM, Wednesday: 8:00 AM  5:30 PM, Thursday: 8:00 AM  5:30 PM, Friday: 8:00 AM  5:30 PM, Saturday: 8:00 AM  12:00 PM, Sunday: Closed"
ChIJmdIipPCq9YgRADA8oZkNFoM,30034,doctor,Personalized Primary Care Atl,33.700534,-84.238787,,"3706 Greentree Farms Dr, Decatur, GA 30034, USA",https://maps.google.com/?cid=9445752221942427648,(404) 323-5142,
ChIJrxsgHUWo9YgRx81ryYr1FSk,30002,doctor,Lifeline Primary Care,33.809968,-84.240312,http://www.lifelineprimarycare.com/,"3660 Market St, Clarkston, GA 30021, USA",https://maps.google.com/?cid=2960542306499546567,(470) 355-7896,"Monday: 8:30 AM  5:30 PM, Tuesday: 8:30 AM  5:30 PM, Wednesday: 8:30 AM  5:30 PM, Thursday: 8:30 AM  5:30 PM, Friday: 9:00 AM  1:00 PM, Saturday: 9:00 AM  1:00 PM, Sunday: Closed"
ChIJs1m6DwpV9IgR8w9YwNSX51w,30320,doctor,Clopton Primary Care,33.6190292,-84.241375,http://clopton.weebly.com/,"195 Fairview Rd, Ellenwood, GA 30294, USA",https://maps.google.com/?cid=6694486311125389299,(770) 507-0112,"Monday: 9:00 AM  5:00 PM, Tuesday: 9:00 AM  5:00 PM, Wednesday: 9:00 AM  1:00 PM, Thursday: 9:00 AM  5:00 PM, Friday: 9:00 AM  5:00 PM, Saturday: 9:00 AM  5:00 PM, Sunday: Closed"
ChIJX7cvYcOn9YgRBFIeCVLtkh8,30307,doctor,Atlanta Cardiology/primary Care,33.8537337,-84.2439796,http://acpcpc.com/meet-our-physicians.html,"3562 Habersham at Northlake Rd #a, Tucker, GA 30084, USA",https://maps.google.com/?cid=2275141698371604996,(404) 296-1130,
ChIJufLY-7ig9YgR6YBgOdeEtVk,30023,doctor,Lifeline Primary Care,33.944465,-84.251146,http://www.lifelineprimarycare.com/,"3330 Suite H, Peachtree Corners Cir, Peachtree Corners, GA 30092, USA",https://maps.google.com/?cid=6464218900075675881,(678) 775-9344,"Monday: 8:30 AM  5:30 PM, Tuesday: 8:30 AM  5:30 PM, Wednesday: 8:30 AM  5:30 PM, Thursday: 8:30 AM  5:30 PM, Friday: 9:00 AM  1:00 PM, Saturday: 9:00 AM  1:00 PM, Sunday: Closed"
ChIJ9w_byeup9YgR5NKnsDw0Iu4,30364,health,Primary Care Chiropractic/Dr. Richard Morton,33.7712969,-84.252936,http://primarydc.com/,"3345 Kensington Rd, Decatur, GA 30032, USA",https://maps.google.com/?cid=17159334965501481700,(404) 299-2244,
ChIJz58laxOo9YgRIR58YoJyYlo,30021,doctor,Montreal Primary Care,33.8254601,-84.2548593,http://www.dekalbmedical.org/dekalb-medical-physician-groups/montreal-internal-medicine/our-providers,"1462 Montreal Rd #312, Tucker, GA 30084, USA",https://maps.google.com/?cid=6512893915454774817,(770) 939-5130,
ChIJC8ElXBGo9YgRXXI6SLQW0Nw,30021,doctor,Primary Care Association Of Atlanta,33.8255553,-84.2549456,,"1462 Montreal Rd, Tucker, GA 30084, USA",https://maps.google.com/?cid=15911242447061676637,(770) 414-5611,
ChIJGbCQLRGo9YgRqrTbNjU7Q4w,31139,doctor,"Dr. Byron C. Cotton, MD",33.8252324,-84.2563359,http://www.kidsandteenspc.com/,"2785 Lawrenceville Hwy, Decatur, GA 30033, USA",https://maps.google.com/?cid=10106987088489198762,(770) 621-0245,"Monday: 8:30 AM  6:00 PM, Tuesday: 8:30 AM  4:30 PM, Wednesday: 8:30 AM  4:30 PM, Thursday: 8:30 AM  6:00 PM, Friday: 8:30 AM  4:30 PM, Saturday: 9:00 AM  12:00 PM, Sunday: Closed"
ChIJGbCQLRGo9YgRCU-FTSebIxs,30307,doctor,Kids & Teens Primary Healthcare,33.8255031,-84.2564171,http://kidsandteenspc.com/,"2785 Lawrenceville Hwy # 207, Decatur, GA 30033, USA",https://maps.google.com/?cid=1955577256315539209,(770) 621-0245,"Monday: 8:30 AM  6:00 PM, Tuesday: 8:30 AM  4:30 PM, Wednesday: 8:30 AM  4:30 PM, Thursday: 8:30 AM  6:00 PM, Friday: 8:30 AM  4:30 PM, Saturday: 9:00 AM  12:00 PM, Sunday: Closed"
ChIJFXn_Gyye9YgRUO7O80nPUyM,30005,doctor,"Dr. Terence L. Moraczewski, MD",34.0693043,-84.2637761,http://www.northatlantaprimarycare.com/dr-terry-moraczewski.php,"3400 Old Milton Pkwy c270, Alpharetta, GA 30005, USA",https://maps.google.com/?cid=2545606130924449360,(770) 442-1911,"Monday: 7:30 AM  5:00 PM, Tuesday: 7:30 AM  5:00 PM, Wednesday: 7:30 AM  5:00 PM, Thursday: 7:30 AM  5:00 PM, Friday: 7:30 AM  5:00 PM, Saturday: Closed, Sunday: Closed"
ChIJFXn_Gyye9YgRlW0rj6E5trY,30005,doctor,"Dr. Thomas E. Bat, MD",34.069302,-84.26393,http://www.napc.md/dr-thomas-bat.php,"3400 Old Milton Pkwy, Alpharetta, GA 30005, USA",https://maps.google.com/?cid=13165773926718729621,(770) 442-1911,
ChIJWeD1HgKq9YgRO9TNl_PbvDE,30368,doctor,"Lisa Welch, MD",33.7516478,-84.2646951,,"1290 Columbia Dr, Decatur, GA 30032, USA",https://maps.google.com/?cid=3583981242750456891,(404) 289-1952,
ChIJjU_tfd8J9YgRFrW64ngReM0,30340,doctor,Georgia Clinic,33.9054505,-84.2708763,http://www.gaclinicpc.com/,"5677 Buford Hwy NE, Doraville, GA 30340, USA",https://maps.google.com/?cid=14805602985878140182,(678) 547-1045,
ChIJP_1ZwH4H9YgRvstuJb345e8,30320,doctor,The Primary Care Center,33.79368,-84.274029,http://www.primarycarecenter.com/,"C, 2891 N Decatur Rd, Decatur, GA 30033, USA",https://maps.google.com/?cid=17286496235992042430,(404) 298-0008,"Monday: 9:00 AM  9:00 PM, Tuesday: 9:00 AM  9:00 PM, Wednesday: 9:00 AM  9:00 PM, Thursday: 9:00 AM  9:00 PM, Friday: 9:00 AM  9:00 PM, Saturday: 9:00 AM  9:00 PM, Sunday: 9:00 AM  6:00 PM"
ChIJP_1ZwH4H9YgRI3dcSb_T-U0,30021,doctor,Primary Care Center: Shikh Charanjit S MD,33.7936802,-84.2740293,,"2891 N Decatur Rd # C, Decatur, GA 30033, USA",https://maps.google.com/?cid=5618754828644415267,(404) 298-0008,
ChIJC-loeHkH9YgRHnkY2fYqzGI,31150,doctor,The Emory Clinic at Decatur,33.7926008,-84.2776955,http://www.emoryhealthcare.org/,"2801 N Decatur Rd #295, Decatur, GA 30030, USA",https://maps.google.com/?cid=7119112350658492702,(404) 778-6400,"Monday: 8:00 AM  5:00 PM, Tuesday: 8:00 AM  5:00 PM, Wednesday: 8:00 AM  5:00 PM, Thursday: 8:00 AM  5:00 PM, Friday: 8:00 AM  5:00 PM, Saturday: Closed, Sunday: Closed"
ChIJX8o5_e919YgRk7JemLmH3yw,30004,doctor,North Fulton Primary Care,34.097654,-84.2805648,,"4895 Windward Pkwy #202, Alpharetta, GA 30004, USA",https://maps.google.com/?cid=3233452288670347923,(770) 475-0888,
ChIJW6tO4HAH9YgRjsDEU6lE9SU,30301,doctor,North Decatur Primary Care,33.7911021,-84.2830716,,"2675 N Decatur Rd #601, Decatur, GA 30033, USA",https://maps.google.com/?cid=2735167842743009422,(404) 501-2900,"Monday: 8:00 AM  4:30 PM, Tuesday: 8:00 AM  4:30 PM, Wednesday: 8:00 AM  4:30 PM, Thursday: 8:00 AM  4:30 PM, Friday: 8:00 AM  4:30 PM, Saturday: Closed, Sunday: Closed"
ChIJxcuhuL0K9YgRerVhdG6p-JU,30004,health,North Fulton Primary Care,34.0008549,-84.2835401,http://holcombbridge.nfultonphysicians.com/,"2612 Holcomb Bridge Rd, Alpharetta, GA 30022, USA",https://maps.google.com/?cid=10806573597739562362,(770) 650-8980,
ChIJeX6DgzQI9YgRmqsKaTfe3D0,30305,doctor,Evergreen Primary Care PC,33.885087,-84.286109,,"2505 Chamblee Tucker Rd # 110, Atlanta, GA 30341, USA",https://maps.google.com/?cid=4457682060756822938,(770) 216-8499,
ChIJS8-rqb4A9YgR4YfvJplGZBE,30032,doctor,Dekalb Family Medicine,33.736562,-84.286358,http://www.dfmoc.com/,"1862 Candler Rd, Decatur, GA 30034, USA",https://maps.google.com/?cid=1253204219913013217,(404) 289-4556,"Monday: 8:30 AM  5:00 PM, Tuesday: 8:30 AM  5:00 PM, Wednesday: 8:30 AM  5:00 PM, Thursday: 8:30 AM  5:00 PM, Friday: 8:30 AM  5:00 PM, Saturday: Closed, Sunday: Closed"
ChIJ9w_byeup9YgR56bKZxiWsVs,30301,health,Primary Care Chiropractic/Dr. Richard Morton,33.7710879,-84.2863744,http://www.primarydc.com/,"228 Weeks St, Decatur, GA 30030, USA",https://maps.google.com/?cid=6607227159893944039,(404) 377-2423,
ChIJZ49hkAwH9YgRD4ywDHUPbRc,30375,doctor,American CareSource Decatur,33.7923356,-84.2928928,http://americancaresource.com/market/atlanta/american-caresource-decatur/,"1418 Scott Blvd, Decatur, GA 30030, USA",https://maps.google.com/?cid=1688022430732291087,(404) 600-1000,"Monday: 8:00 AM  6:00 PM, Tuesday: 8:00 AM  6:00 PM, Wednesday: 8:00 AM  6:00 PM, Thursday: 8:00 AM  6:00 PM, Friday: 8:00 AM  6:00 PM, Saturday: 8:00 AM  6:00 PM, Sunday: 8:00 AM  6:00 PM"
ChIJhxHcuCIH9YgReNXB-hGM8Yo,30320,doctor,Ponce Primary Care,33.7754267,-84.3025214,http://www.ponceprimarycare.com/,"402 W Ponce de Leon Ave, Decatur, GA 30030, USA",https://maps.google.com/?cid=10011937455470663032,(404) 537-2521,"Monday: 7:30 AM  5:00 PM, Tuesday: 7:30 AM  5:00 PM, Wednesday: 7:30 AM  5:00 PM, Thursday: 7:30 AM  5:00 PM, Friday: 7:30 AM  5:00 PM, Saturday: Closed, Sunday: Closed"
ChIJoyr02WAI9YgR3dVfaqkTBgw,30303,hospital,Children's Healthcare Primary Care Center,33.864402,-84.305755,http://www.choa.org/primarycarechamblee,"4166 Buford Hwy NE, Atlanta, GA 30345, USA",https://maps.google.com/?cid=866401596670465501,(404) 785-5437,"Monday: 11:00 AM  9:00 PM, Tuesday: 11:00 AM  9:00 PM, Wednesday: 11:00 AM  9:00 PM, Thursday: 11:00 AM  9:00 PM, Friday: 11:00 AM  9:00 PM, Saturday: 9:00 AM  9:00 PM, Sunday: 9:00 AM  9:00 PM"
ChIJCQjtF6p19YgRop25QjVCWhg,30004,doctor,Northside Primary Care,34.0683959,-84.3076305,http://www.northsideprimarycare.com/,"11820 Northfall Ln #1103, Alpharetta, GA 30009, USA",https://maps.google.com/?cid=1754787801334390178,(678) 867-0904,"Monday: 9:00 AM  5:00 PM, Tuesday: Closed, Wednesday: 9:00 AM  5:00 PM, Thursday: Closed, Friday: 9:00 AM  1:00 PM, Saturday: Closed, Sunday: Closed"
ChIJYR0avLQH9YgRSHR5iMRkMXs,30321,health,Toco Hills Primary Care,33.817204,-84.3110782,http://www.tocohillsprimarycare.com/,"2882 N Druid Hills Rd, Atlanta, GA 30329, United States",https://maps.google.com/?cid=8876987135789986888,(404) 665-4482,"Monday: 8:00 AM  5:00 PM, Tuesday: 8:00 AM  5:00 PM, Wednesday: 8:00 AM  5:00 PM, Thursday: 8:00 AM  5:00 PM, Friday: 8:00 AM  5:00 PM, Saturday: Closed, Sunday: Closed"
ChIJhzj_zoEJ9YgRnOgYGAUJ8Oc,30338,doctor,Georgia Clinic,33.9296545,-84.3111843,http://www.gaclinicpc.com/,"1861 Peeler Rd, Dunwoody, GA 30338, USA",https://maps.google.com/?cid=16712868134655682716,(770) 730-5800,
ChIJD66N19R09YgRahhJOjSGUFQ,30005,doctor,Peachtree Primary Care,34.022721,-84.314852,,"1570 Old Alabama Rd, Roswell, GA 30076, USA",https://maps.google.com/?cid=6075503456197089386,(770) 676-6838,
ChIJEwNGgvh09YgRaVSPG_afjfU,30005,doctor,Miller Todd MD,34.067814,-84.3193458,http://alpharettainternalmed.com/,"1380 Upper Hembree Rd, Roswell, GA 30076, USA",https://maps.google.com/?cid=17693974390381696105,(770) 475-2377,
ChIJv1mFt_sG9YgRgSddHklce4g,30301,health,Emory Healthcare Primary Care,33.7927969,-84.3193989,http://www.emoryhealthcare.org/internal-medicine-primary-care/locations-contacts/pc-1365-clifton.html,"1365 Clifton Rd Suite 1400, Atlanta, GA 30322, USA",https://maps.google.com/?cid=9834555680405399425,(404) 778-6920,
ChIJ-wstgfcG9YgRB-qBAaaZVk0,30332,doctor,"Paul Walter, M.D.",33.7925208,-84.3207398,http://www.emoryhealthcare.org/find_physician/physician_detail.jsp?physicianid=987,"1365 Clifton Rd, Atlanta, GA 30307, USA",https://maps.google.com/?cid=5572810527186479623,(404) 778-2700,
ChIJOSe5tUj-9IgRPfomEeDUxtg,30288,physiotherapist,Concentra Urgent Care,33.6389659,-84.321495,http://www.concentra.com/?utm_source=Yext&utm_medium=Listings&utm_campaign=Yext%20listing,"4223 GA-42, Conley, GA 30288, USA",https://maps.google.com/?cid=15620406416406673981,(404) 366-2900,"Monday: 8:00 AM  5:00 PM, Tuesday: 8:00 AM  5:00 PM, Wednesday: 8:00 AM  5:00 PM, Thursday: 8:00 AM  5:00 PM, Friday: 8:00 AM  5:00 PM, Saturday: Closed, Sunday: Closed"
ChIJl0jb7PN09YgR_nWkEHfd4kY,30009,doctor,North Fulton Primary Care: Healthcare Associates,34.0626147,-84.3216669,http://healthcareassociates.nfultonphysicians.com/,"2500 Hospital Blvd #340, Roswell, GA 30076, USA",https://maps.google.com/?cid=5107888430841624062,(770) 740-1753,"Monday: 8:00 AM  4:30 PM, Tuesday: 8:00 AM  4:30 PM, Wednesday: 8:00 AM  4:30 PM, Thursday: 8:00 AM  4:30 PM, Friday: 8:00 AM  4:30 PM, Saturday: Closed, Sunday: Closed"
ChIJ_QYM4_l09YgRmKWfvu87zR0,30075,doctor,North Fulton Internal Medicine,34.0626146,-84.321667,http://www.nfimg.org/,"2500 Hospital Blvd, Roswell, GA 30076, USA",https://maps.google.com/?cid=2147438498206950808,(770) 442-1111,
ChIJ-wstgfcG9YgRblGVsM4YNbU,30313,doctor,"Dr. Shabnam B. Shah, MD",33.7979566,-84.3226399,,"1525 Clifton Rd, Atlanta, GA 30329, USA",https://maps.google.com/?cid=13057369970635526510,(404) 778-2700,
ChIJ-wstgfcG9YgRxsSGFqTHx5Y,30322,doctor,"Dr. Sally A. West, MD",33.7979564,-84.322641,http://www.emoryhealthcare.org/heart-center-atlanta/index.html,"1525 Clifton Rd, Atlanta, GA 30322, USA",https://maps.google.com/?cid=10864872133621105862,(404) 778-2700,
ChIJ-wstgfcG9YgRpgqxslRIdJE,30301,doctor,"Dr. Jason Higdon, MD",33.7979571,-84.3226425,,"1525 Clifton Road North East, Atlanta, GA 30322, Druid Hills, GA 30329, USA",https://maps.google.com/?cid=10481081761410386598,(404) 778-2050,
ChIJ-wstgfcG9YgRWugk4qGHWqM,30301,doctor,Emory University-Primary Care: Piercefield Dayne D MD,33.7993821,-84.3233106,http://www.emoryhealthcare.org/internal-medicine-primary-care/index.html,"790 Clifton Heights Ln NE, Atlanta, GA 30322, USA",https://maps.google.com/?cid=11770869705439766618,(404) 778-2700,
ChIJl0jb7PN09YgRMyUO3FZY6qk,30075,doctor,North Fulton Health Care,34.060675,-84.329167,,"1155 Hembree Rd # 210, Roswell, GA 30076, USA",https://maps.google.com/?cid=12243695667042460979,(770) 740-1753,
ChIJQVw0P7F09YgRDCrLJNrjDDw,30076,school,Primary Preparatory Learning Center,34.0342212,-84.3310702,,"1520 Warsaw Rd, Roswell, GA 30076, USA",https://maps.google.com/?cid=4327083868055874060,(770) 642-1777,"Monday: 6:00 AM  12:00 AM, Tuesday: 6:00 AM  12:00 AM, Wednesday: 6:00 AM  12:00 AM, Thursday: 6:00 AM  12:00 AM, Friday: 6:00 AM  6:00 PM, Saturday: Closed, Sunday: 6:00 AM  12:00 AM"
ChIJI9KKgGEG9YgRhU1vrkMLqSQ,30301,doctor,Druid Hills Primary Care: Dr. Joseph Smiddy,33.8034962,-84.3384949,http://www.joesmiddymd.com/,"1700 Briarcliff Rd NE, Atlanta, GA 30306, USA",https://maps.google.com/?cid=2641655041746750853,(404) 228-2648,"Monday: 8:00 AM  5:00 PM, Tuesday: 8:00 AM  5:00 PM, Wednesday: 8:00 AM  5:00 PM, Thursday: 8:00 AM  5:00 PM, Friday: 9:00 AM  5:00 PM, Saturday: Closed, Sunday: Closed"
ChIJqYBp1xMG9YgREw6srYHBPuY,30329,doctor,Personalized Primary Care Atlanta,33.8288485,-84.3404962,http://www.ppcatl.com/,"57 Executive Park S #390, Atlanta, GA 30329, USA",https://maps.google.com/?cid=16590910839988162067,(404) 997-6790,"Monday: 8:30 AM  5:00 PM, Tuesday: 8:30 AM  5:00 PM, Wednesday: 8:30 AM  5:00 PM, Thursday: 8:30 AM  5:00 PM, Friday: 8:30 AM  5:00 PM, Saturday: Closed, Sunday: Closed"
ChIJDe3C1hMG9YgR2mIO10f3o5s,30303,doctor,Mavromatis Juliet Kott MD,33.8289603,-84.3405737,http://www.ppcatl.com/,"57 Executive Park S #390, Atlanta, GA 30324, USA",https://maps.google.com/?cid=11215079385005449946,(404) 997-6790,
ChIJHUgd36R09YgRHDW1ITv2CdY,30004,hospital,Smart Primary Care,34.0387026,-84.3462691,,"540 E Crossville Rd, Roswell, GA 30075, USA",https://maps.google.com/?cid=15423129132736001308,(770) 872-0877,
ChIJAzJsIkwJ9YgR2rigP76CgjU,30326,doctor,North Atlanta Primary Care,33.9202415,-84.3496107,http://www.napc.md/,"1150 Hammond Dr NE, Atlanta, GA 30328, USA",https://maps.google.com/?cid=3855787984605460698,(770) 442-1911,"Monday: 7:30 AM  5:00 PM, Tuesday: 7:30 AM  5:00 PM, Wednesday: 7:30 AM  5:00 PM, Thursday: 7:30 AM  5:00 PM, Friday: 7:30 AM  5:00 PM, Saturday: Closed, Sunday: Closed"
ChIJLfNgSgIM9YgRti5RhLVZ2YU,31156,doctor,"Dr. Karen M. Helland, MD",33.9198383,-84.349827,http://www.napc.md/,"1150 Hammond Dr NE #310, Atlanta, GA 30328, USA",https://maps.google.com/?cid=9644838713134493366,(770) 442-1911,"Monday: 7:30 AM  5:00 PM, Tuesday: 7:30 AM  5:00 PM, Wednesday: 7:30 AM  5:00 PM, Thursday: 7:30 AM  5:00 PM, Friday: 7:30 AM  5:00 PM, Saturday: Closed, Sunday: Closed"
ChIJQQ6k-zQJ9YgRifUYh8X8WXQ,30326,doctor,Atlanta Cardiology & Primary,33.9103078,-84.3502984,http://acpcpc.com/meet-our-physicians.html,"5673 Peachtree Dunwoody Rd, Atlanta, GA 30342, USA",https://maps.google.com/?cid=8384010106632205705,(404) 296-1130,
ChIJUzwxTHYG9YgRJzKQJXJumeo,30301,hospital,Intown Primary Care,33.8156753,-84.3523446,http://www.intownprimarycare.com/,"2215 Cheshire Bridge Rd NE, Atlanta, GA 30324, USA",https://maps.google.com/?cid=16904664112847401511,(404) 541-0944,"Monday: 8:30 AM  7:00 PM, Tuesday: 8:30 AM  7:00 PM, Wednesday: 8:30 AM  7:00 PM, Thursday: 8:30 AM  7:00 PM, Friday: 8:30 AM  4:00 PM, Saturday: 9:00 AM  3:00 PM, Sunday: 11:00 AM  3:00 PM"
ChIJfTH54DQJ9YgRJ-bqmyGLNo8,30305,doctor,"Dr. Lonnie Herzog, MD",33.909505,-84.3529078,http://www.pcpatl.com/ThePhysicians.html#herzog,"5670 Peachtree Dunwoody Rd #1200, Atlanta, GA 30342, USA",https://maps.google.com/?cid=10319588572632114727,(404) 255-9100,
ChIJwc_uzDQJ9YgRderXnPxPYHs,30342,hospital,Northside Primary Care,33.9088758,-84.3540806,http://www.northside.com/,"1000 Johnson Ferry Rd NE, Atlanta, GA 30342, USA",https://maps.google.com/?cid=8890193610811107957,(404) 851-8000,
ChIJXTU4yIlz9YgRuxCqeXowccE,30004,doctor,Bianco Primary Care,34.0827853,-84.3554472,http://www.biancoprimarycare.com/,"12315 Crabapple Rd #108, Alpharetta, GA 30004, USA",https://maps.google.com/?cid=13938975624273727675,(678) 254-2333,"Monday: 9:00 AM  4:00 PM, Tuesday: 9:00 AM  4:00 PM, Wednesday: 9:00 AM  4:00 PM, Thursday: 9:00 AM  4:00 PM, Friday: 9:00 AM  12:00 PM, Saturday: Closed, Sunday: Closed"
ChIJpyfjyckO9YgRmy9RVNPPyCg,30325,doctor,Perimeter Primary Care,33.9163757,-84.3597533,http://www.ppcare.com/,"5885 Glenridge Dr #200, Atlanta, GA 30328, USA",https://maps.google.com/?cid=2938827263418904475,(770) 391-0552,"Monday: 7:30 AM  3:30 PM, Tuesday: 7:30 AM  3:30 PM, Wednesday: 7:30 AM  3:30 PM, Thursday: 7:30 AM  3:30 PM, Friday: 7:30 AM  3:30 PM, Saturday: Closed, Sunday: Closed"
ChIJV0mHMCz89IgRpdD7fxnyek8,30320,park,Physicians At Forest Park,33.61865,-84.36155,,"871 Forest Pkwy, Forest Park, GA 30297, USA",https://maps.google.com/?cid=5727156067490320549,(404) 608-4979,
ChIJ8SwXHa8O9YgRkQjN0vVBdS4,30305,dentist,Alliance Primary Care,33.9281707,-84.3619699,http://www.allianceprimarycare.net/,"755 Mount Vernon Hwy NE # 120, Atlanta, GA 30328, USA",https://maps.google.com/?cid=3347654422079277201,(404) 851-0029,"Monday: 8:00 AM  4:30 PM, Tuesday: 8:00 AM  4:30 PM, Wednesday: 8:00 AM  4:30 PM, Thursday: 8:00 AM  4:30 PM, Friday: 8:00 AM  2:30 PM, Saturday: Closed, Sunday: Closed"
ChIJa93a8xkE9YgR1Svt4NeXmks,30303,doctor,"Dr. Scott B. Parry, DO",33.7744662,-84.3641736,http://intownprimarycare.com/about/,"730 Ponce De Leon Pl NE, Atlanta, GA 30306, USA",https://maps.google.com/?cid=5447833652705438677,(404) 541-0944,"Monday: 8:30 AM  4:30 PM, Tuesday: 8:30 AM  4:30 PM, Wednesday: 8:30 AM  4:30 PM, Thursday: 8:30 AM  4:30 PM, Friday: 8:30 AM  4:00 PM, Saturday: 9:00 AM  3:00 PM, Sunday: 11:00 AM  3:00 PM"
ChIJefsSIRoE9YgR0ke0fmrEyoU,30301,doctor,Intown Primary Care,33.774459,-84.3641741,http://www.intownprimarycare.com/,"730 Ponce De Leon Place, Atlanta, GA 30306, USA",https://maps.google.com/?cid=9640733914011289554,(404) 541-0944,"Monday: 8:30 AM  7:00 PM, Tuesday: 8:30 AM  7:00 PM, Wednesday: 8:30 AM  7:00 PM, Thursday: 8:30 AM  7:00 PM, Friday: 8:30 AM  4:00 PM, Saturday: 9:00 AM  3:00 PM, Sunday: 11:00 AM  3:00 PM"
ChIJZfGd-vMF9YgRzfn40AoHA5M,31150,hospital,Piedmont Minor Emergency Clinic,33.8242463,-84.3667604,http://piedmontminor.com/,"2521 Piedmont Rd NE, Atlanta, GA 30324, USA",https://maps.google.com/?cid=10593318491542583757,(404) 237-1755,
ChIJVVVVVSEP9YgRvlqzqcXWGw4,30342,doctor,Primary Care Physicians,33.8856615,-84.3699767,,"Atlanta, GA 30342, USA",https://maps.google.com/?cid=1016642285346183870,(404) 256-3901,
ChIJZfGd-vMF9YgRTDsxaGrBjvE,30305,health,Piedmont Minor,33.8406593,-84.3705284,http://piedmontminor.com/,"3108 Piedmont Rd NE, Atlanta, GA 30305, USA",https://maps.google.com/?cid=17406062272592296780,(770) 981-4908,
ChIJsQsxhgsE9YgR1ieCr4dfiuQ,30301,doctor,Primary Care Specialists,33.762333,-84.371516,,"285 Boulevard NE, Atlanta, GA 30312, USA",https://maps.google.com/?cid=16468080023803406294,(404) 524-8950,
ChIJsQsxhgsE9YgR_a_d5SaUy20,30303,doctor,Physician Care Centers of Atlanta: Shelton Courtney & Joel Isom MD,33.762645,-84.371594,,"Medical Office Building A, 285 Boulevard NE #435, Atlanta, GA 30312, USA",https://maps.google.com/?cid=7911580065192587261,(404) 222-9914,"Monday: 8:30 AM  5:00 PM, Tuesday: 8:30 AM  5:00 PM, Wednesday: 8:30 AM  5:00 PM, Thursday: 8:30 AM  5:00 PM, Friday: 8:30 AM  5:00 PM, Saturday: Closed, Sunday: Closed"
ChIJsQsxhgsE9YgRT6E4uMmgPvA,30312,doctor,Atlanta Primary Care Center: Bennett Cecil MD,33.7626661,-84.3717,,"285 Boulevard NE #435, Atlanta, GA 30312, USA",https://maps.google.com/?cid=17311450805898355023,(404) 524-8958,
ChIJy3cOFfMF9YgRSjRf_tkZ8Nk,30305,doctor,"Dr. Howard S. Yager, MD",33.8398054,-84.3738855,http://www.howardyagermd.com/,"3109 E Shadowlawn Ave NE, Atlanta, GA 30305, USA",https://maps.google.com/?cid=15704080324707169354,(404) 261-1165,
ChIJOaKcR_MD9YgRBxLumg-RKyA,31150,health,Mercy Care,33.7509488,-84.3744307,http://mercyatlanta.org/,"424 Decatur St SE, Atlanta, GA 30312, USA",https://maps.google.com/?cid=2318105929422082567,(678) 843-8600,"Monday: 8:30 AM  5:00 PM, Tuesday: 8:30 AM  5:00 PM, Wednesday: 7:00 AM  9:00 PM, Thursday: 8:30 AM  5:00 PM, Friday: 7:00 AM  1:00 PM, Saturday: Closed, Sunday: Closed"
ChIJta0piLgM9YgRGrVROoH-Lzw,30075,doctor,North Fulton Primary Care,34.0107874,-84.3751069,http://www.nfultonphysicians.com/,"9420 Willeo Rd #206, Roswell, GA 30075, USA",https://maps.google.com/?cid=4336964797163746586,(404) 439-9851,
ChIJrQ8UGkr89IgR6D-vI_i_LPo,30320,doctor,Emir Primary Care,33.6193195,-84.3757769,http://www.emirpc.com/,"4930 Governors Dr # 409, Forest Park, GA 30297, USA",https://maps.google.com/?cid=18026994480928735208,(404) 366-3647,"Monday: 9:00 AM  5:00 PM, Tuesday: 9:00 AM  5:00 PM, Wednesday: 9:00 AM  5:00 PM, Thursday: 9:00 AM  5:00 PM, Friday: 9:00 AM  5:00 PM, Saturday: Closed, Sunday: Closed"
ChIJvzk9tWEP9YgR5tSAgjTLPfk,30305,insurance_agency,Cigna HealthCare,33.8490517,-84.3773505,http://www.cigna.com/,"3500 Piedmont Rd NE #200, Atlanta, GA 30305, USA",https://maps.google.com/?cid=17959734315411625190,(404) 443-8800,"Monday: 9:00 AM  5:00 PM, Tuesday: 9:00 AM  5:00 PM, Wednesday: 9:00 AM  5:00 PM, Thursday: 9:00 AM  5:00 PM, Friday: 9:00 AM  5:00 PM, Saturday: Closed, Sunday: Closed"
ChIJE5GOP5QO9YgRizpYkAvtLqU,30004,health,The Primary Care Center,33.918223,-84.3777568,http://www.primarycarecenter.com/,"5975 Roswell Rd a105, Atlanta, GA 30328, USA",https://maps.google.com/?cid=11902711499108924043,(404) 941-1160,"Monday: 9:00 AM  9:00 PM, Tuesday: 9:00 AM  9:00 PM, Wednesday: 9:00 AM  9:00 PM, Thursday: 9:00 AM  9:00 PM, Friday: 9:00 AM  9:00 PM, Saturday: 9:00 AM  9:00 PM, Sunday: 9:00 AM  6:00 PM"
ChIJcRQtz2gP9YgRd4_jEG2Kf5M,30339,doctor,Perimeter Clinic Buckhead,33.8600317,-84.3801878,http://perimeterclinic.com/,"3867 Roswell Road N.E., Suite 100, Atlanta, GA 30342, USA",https://maps.google.com/?cid=10628365846657077111,(678) 904-5611,"Monday: 9:00 AM  7:00 PM, Tuesday: 9:00 AM  7:00 PM, Wednesday: 9:00 AM  7:00 PM, Thursday: 9:00 AM  7:00 PM, Friday: 9:00 AM  7:00 PM, Saturday: 10:00 AM  5:00 PM, Sunday: 12:00  5:00 PM"
ChIJxfI2C5kO9YgRBrggD9ovnPY,30358,physiotherapist,Concentra Urgent Care,33.928123,-84.38024,http://www.concentra.com/?utm_source=Yext&utm_medium=Listings&utm_campaign=Yext%20listing,"6334 Roswell Road, Suite NE, Ste C, Sandy Springs, GA 30328, USA",https://maps.google.com/?cid=17770130843300313094,(678) 812-2277,"Monday: 8:00 AM  7:00 PM, Tuesday: 8:00 AM  7:00 PM, Wednesday: 8:00 AM  7:00 PM, Thursday: 8:00 AM  7:00 PM, Friday: 8:00 AM  7:00 PM, Saturday: 10:00 AM  3:00 PM, Sunday: Closed"
ChIJ4XSj-eMO9YgR4xVODURiRmY,30305,doctor,Primary Care Physician Center PC,33.8970389,-84.3810885,,"5197 Roswell Rd, Atlanta, GA 30342, USA",https://maps.google.com/?cid=7369685884658914787,(404) 252-1230,
ChIJk40RTYkD9YgRtEC3uFx1hKQ,30303,hospital,Grady Walk-In Center,33.752727,-84.3812508,,"56 Jesse Hill Jr Dr SE, Atlanta, GA 30303, USA",https://maps.google.com/?cid=11854729160242446516,(404) 616-6661,"Monday: 8:00 AM  8:00 PM, Tuesday: 8:00 AM  8:00 PM, Wednesday: 8:00 AM  8:00 PM, Thursday: 8:00 AM  8:00 PM, Friday: 8:00 AM  8:00 PM, Saturday: Closed, Sunday: Closed"
ChIJnbR7E4kD9YgR1OiGv6sSPfI,30303,health,St Joseph's Mercy Care,33.75423,-84.381275,,"191 Edgewood Ave SE, Atlanta, GA 30303, USA",https://maps.google.com/?cid=17455128259619907796,(404) 941-9134,
ChIJnbR7E4kD9YgR1OiGv6sSPfI,30303,health,Mercy Care Atlanta,33.7542411,-84.3814194,,"187 Edgewood Ave SE, Atlanta, GA 30303, USA",https://maps.google.com/?cid=17455128259619907796,(404) 941-9134,
ChIJE0RlP4kD9YgRf-FdJvSfWXw,30303,hospital,Children's Healthcare of Atlanta at Hughes Spalding,33.753838,-84.381638,http://www.choa.org/hughesspalding,"35 Jesse Hill Jr Dr SE, Atlanta, GA 30303, USA",https://maps.google.com/?cid=8960368804594835839,(404) 785-5437,"Monday: 11:00 AM  9:00 PM, Tuesday: 11:00 AM  9:00 PM, Wednesday: 11:00 AM  9:00 PM, Thursday: 11:00 AM  9:00 PM, Friday: 11:00 AM  9:00 PM, Saturday: 9:00 AM  9:00 PM, Sunday: 9:00 AM  9:00 PM"
ChIJC1mNQBJz9YgRKQvUOIpYCtY,30075,hospital,Roswell Urgent Care,34.058044,-84.381896,http://www.roswellurgentcare.com/,"660 W Crossville Rd #110, Roswell, GA 30075, USA",https://maps.google.com/?cid=15423237224565836585,(770) 992-4700,"Monday: 9:00 AM  8:00 PM, Tuesday: 9:00 AM  8:00 PM, Wednesday: 9:00 AM  8:00 PM, Thursday: 9:00 AM  8:00 PM, Friday: 9:00 AM  8:00 PM, Saturday: 9:00 AM  6:00 PM, Sunday: 9:00 AM  6:00 PM"
ChIJmwfyRYkD9YgRr2QOQ9rNXmY,30303,doctor,"Dr. Lisa B. Bernstein, MD",33.7520615,-84.3821977,,"80 Jesse Hill Jr Dr SE, Atlanta, GA 30303, USA",https://maps.google.com/?cid=7376559576991032495,(404) 616-4307,
ChIJ-X3Sp0ME9YgRhhAMpDuinpU,30309,point_of_interest,Alpha Healthcare Group,33.7839275,-84.3827757,http://alphacmo.com/,"1075 Peachtree St NE, Atlanta, GA 30309, USA",https://maps.google.com/?cid=10781232935010570374,(866) 556-2030,
ChIJa8PkAnAE9YgRKLbFTd-xHZo,30303,doctor,Emory Clinic at Emory University Hospital Midtown,33.7685572,-84.3864249,http://www.emoryhealthcare.org/locations/the-emory-clinic/emory-clinic-midtown-hospital.html,"550 Peachtree St NE, Atlanta, GA 30308, USA",https://maps.google.com/?cid=11105227828806137384,(404) 686-8181,"Monday: 8:00 AM  5:00 PM, Tuesday: 8:00 AM  5:00 PM, Wednesday: 8:00 AM  5:00 PM, Thursday: 8:00 AM  5:00 PM, Friday: 8:00 AM  5:00 PM, Saturday: Closed, Sunday: Closed"
ChIJUZhzaoYD9YgRTM0hb_FiR1k,30303,point_of_interest,Healthcare Georgia Foundation,33.7591465,-84.3870089,http://www.healthcaregeorgia.org/,"191 Peachtree Street Northeast, 2650, Atlanta, GA 30303, USA",https://maps.google.com/?cid=6433219381813169484,(404) 653-0990,
ChIJI0-fz6UF9YgR3rT5YwNuejU,30309,hospital,South Buckhead - Piedmont Urgent Care by Wellstreet,33.8171538,-84.3898689,http://www.wellstreet.com/office-locations/buckhead-south/?utm_source=google-local&utm_medium=organic&utm_campaign=local-seo,"2292 Peachtree St NW, Atlanta, GA 30309, USA",https://maps.google.com/?cid=3853513392010147038,(404) 382-9941,"Monday: 9:00 AM  9:00 PM, Tuesday: 9:00 AM  9:00 PM, Wednesday: 9:00 AM  9:00 PM, Thursday: 9:00 AM  9:00 PM, Friday: 9:00 AM  9:00 PM, Saturday: 8:00 AM  8:00 PM, Sunday: 8:00 AM  8:00 PM"
ChIJJaPQ6YYD9YgRCIxq7YiF4P0,30303,health,4Front Healthcare of Atlanta,33.755172,-84.389956,http://www.4fronthealthcare.com/atlanta/,"34 Peachtree St NW #2360, Atlanta, GA 30303, USA",https://maps.google.com/?cid=18293768509524184072,(404) 480-4136,"Monday: Open 24 hours, Tuesday: Open 24 hours, Wednesday: Open 24 hours, Thursday: Open 24 hours, Friday: Open 24 hours, Saturday: Open 24 hours, Sunday: Open 24 hours"
ChIJsbNRuoYD9YgRCOf_gQmXR7A,30303,point_of_interest,Community Health Department,33.7541677,-84.3905003,http://dch.georgia.gov/,"2 Peachtree St NW # 5, Atlanta, GA 30303, USA",https://maps.google.com/?cid=12702287341113304840,(404) 656-4507,
ChIJDxiaBp_99IgRTNo6bigUbr4,30354,finance,Concentra,33.649457,-84.3934118,http://www.concentra.com/,"200 Tradeport Blvd, Atlanta, GA 30354, USA",https://maps.google.com/?cid=13721927278525078092,(404) 968-0125,
ChIJg0Ul6VQE9YgRuivQylQYfrE,30305,point_of_interest,Southeastern Primary Care,33.8008754,-84.39358,,"1720 Peachtree St NW # 440, Atlanta, GA 30309, USA",https://maps.google.com/?cid=12789686744237747130,(404) 589-1110,
ChIJr2sci6gF9YgRj28MimthJew,30309,doctor,"Dennis M. Melton, MD",33.8130155,-84.3938923,http://www.absolutecarehealth.com/,"2140 Peachtree Rd #232, Atlanta, GA 30309, USA",https://maps.google.com/?cid=17016113881594752911,(404) 231-4431,"Monday: 7:00 AM  5:30 PM, Tuesday: 7:00 AM  5:30 PM, Wednesday: 8:30 AM  5:30 PM, Thursday: 7:00 AM  5:30 PM, Friday: 7:00 AM  5:30 PM, Saturday: Closed, Sunday: Closed"
ChIJtY7DB6oF9YgRvdcYE7YvGiU,30309,doctor,"Craig Peters, MD",33.8089159,-84.3950174,http://www.piedmontinternalmed.com/atlanta-internal-medicine.php,"105 Collier Rd NW #5020, Atlanta, GA 30309, USA",https://maps.google.com/?cid=2673501787848759229,(404) 351-7467,
ChIJZ2L4-KkF9YgRtyK-3YkszI8,30309,hospital,Piedmont Atlanta Hospital,33.8085004,-84.3952574,http://piedmont.org/,"1968 Peachtree St NW, Atlanta, GA 30309, USA",https://maps.google.com/?cid=10361705813315035831,(404) 605-5000,
ChIJV1Nt5qkF9YgRjiXTAZb8zxE,30309,hospital,Piedmont Atlanta Hospital Wound Care & Hyperbaric Center,33.808773,-84.3952937,http://www.piedmont.org/wound-care/wound-care-home,"35, 1968 Peachtree Rd NW, Atlanta, GA 30309, USA",https://maps.google.com/?cid=1283522140029789582,(404) 605-3580,
ChIJtY7DB6oF9YgRlFZeTqYVu0A,30309,doctor,"Donna J. Roberts, MD",33.8088916,-84.3953364,http://www.piedmont.org/find-a-doctor/doctor-profile?id=5798,"35 Collier Rd NW #500, Atlanta, GA 30309, USA",https://maps.google.com/?cid=4664345643095840404,(404) 350-1010,"Monday: 8:00 AM  5:00 PM, Tuesday: 8:00 AM  5:00 PM, Wednesday: 8:00 AM  5:00 PM, Thursday: 8:00 AM  5:00 PM, Friday: 8:00 AM  5:00 PM, Saturday: Closed, Sunday: Closed"
ChIJA2hpugAF9YgRSB9fcm_1En4,30309,doctor,Piedmont Endocrinology Consultants: Fasy Elizabeth MD,33.8083669,-84.3953903,http://www.piedmontphysicians.org/,"105 Collier Rd NW # 5020, Atlanta, GA 30309, USA",https://maps.google.com/?cid=9084593257368723272,(404) 352-1053,
ChIJtY7DB6oF9YgRjW5i5cni8LA,30318,doctor,Buckhead Internal Medicine,33.8084108,-84.3958374,http://www.buckheadinternalmedicine.com/,"35 Collier Rd NW #150, Atlanta, GA 30309, USA",https://maps.google.com/?cid=12749939901850611341,(404) 355-1966,
ChIJtY7DB6oF9YgRQgmW6UgAhfE,30309,doctor,"Dr. Jason H. Smith, MD",33.8084108,-84.3958374,http://www.piedmont.org/find-a-doctor/doctor-profile?id=5789,"35 Collier Rd NW #775, Atlanta, GA 30309, USA",https://maps.google.com/?cid=17403316648199719234,(404) 350-1122,"Monday: 9:00 AM  5:00 PM, Tuesday: 9:00 AM  5:00 PM, Wednesday: 9:00 AM  5:00 PM, Thursday: 9:00 AM  5:00 PM, Friday: 9:00 AM  5:00 PM, Saturday: Closed, Sunday: Closed"
ChIJtY7DB6oF9YgROrkovVTc2_E,30309,doctor,"Richard Fullerton, MD",33.8083827,-84.3959903,http://www.piedmont.org/find-a-doctor/doctor-profile?id=5787,"35 Collier Rd NW M260, Atlanta, GA 30309, USA",https://maps.google.com/?cid=17427765439549192506,(404) 367-3100,
ChIJA7trugAF9YgRubSICAS9SF0,30305,doctor,Piedmont Physicians MDVIP,33.8090438,-84.3963601,http://www.piedmont.org/locations/location-details?practice=144,"1800 Howell Mill Rd #650, Atlanta, GA 30309, USA",https://maps.google.com/?cid=6721830268871161017,(404) 367-3070,
ChIJdaIR2G799IgRs2mweEUKrf0,30354,physiotherapist,Concentra Urgent Care,33.656304,-84.411301,http://www.concentra.com/?utm_source=Yext&utm_medium=Listings&utm_campaign=Yext%20listing,"3580 Atlanta Ave, Hapeville, GA 30354, USA",https://maps.google.com/?cid=18279277756060559795,(404) 768-3351,"Monday: 7:00 AM  12:00 AM, Tuesday: 7:00 AM  12:00 AM, Wednesday: 7:00 AM  12:00 AM, Thursday: 7:00 AM  12:00 AM, Friday: 7:00 AM  12:00 AM, Saturday: 10:00 AM  6:00 PM, Sunday: 10:00 AM  6:00 PM"
ChIJIdLiAWwD9YgRkElqrYPrRK0,30310,university,Louis W. Sullivan National Center for Primary Care at Morehouse School of Medicine,33.7428886,-84.4118642,,"326-, 344 Westview Dr SW, Atlanta, GA 30310, USA",https://maps.google.com/?cid=12485363017760524688,,
ChIJ9-8cfR4F9YgRxxI5Gu9g7Ao,30301,hospital,Buckhead Urgent Care & Atlanta Primary Care,33.8067679,-84.4125147,http://urgentcareatlanta.com/,"1891 Howell Mill Rd NW, Atlanta, GA 30318, USA",https://maps.google.com/?cid=787110614936392391,(678) 515-0688,"Monday: 8:00 AM  6:00 PM, Tuesday: 8:00 AM  6:00 PM, Wednesday: 8:00 AM  6:00 PM, Thursday: 8:00 AM  6:00 PM, Friday: 8:00 AM  6:00 PM, Saturday: 8:00 AM  4:00 PM, Sunday: 8:00 AM  4:00 PM"
ChIJQ_0NRhUD9YgRAWeDIr8hRmo,31150,hospital,Choice Health Care,33.7366419,-84.4164401,http://choicehealthcarenetwork.com/locations/,"868 York Ave SW, Atlanta, GA 30310, USA",https://maps.google.com/?cid=7657845321191614209,(404) 752-1400,
ChIJraqVZp8C9YgRmgSII3UZeR8,30315,doctor,Goodlife Primary Care Center,33.674542,-84.416846,,"2951 Springdale Rd SW, Atlanta, GA 30315, USA",https://maps.google.com/?cid=2267871878255740058,(404) 684-0305,
ChIJUX9UQloF9YgRRJ16r2mIgDo,30301,doctor,North Atlanta Primary Care,33.841813,-84.426324,http://www.napc.md/,"3200 Downwood Cir NW, Atlanta, GA 30327, USA",https://maps.google.com/?cid=4215519238715776324,(770) 442-1911,"Monday: 7:30 AM  5:00 PM, Tuesday: 7:30 AM  5:00 PM, Wednesday: 7:30 AM  5:00 PM, Thursday: 7:30 AM  5:00 PM, Friday: 7:30 AM  5:00 PM, Saturday: Closed, Sunday: Closed"
ChIJ6Xnl7a8C9YgRLVBx873wgWA,30303,doctor,Dr. Ronald Trotman,33.6812201,-84.4284769,,"1203 Cleveland Ave, Atlanta, GA 30344, USA",https://maps.google.com/?cid=6954103998260531245,(404) 755-2291,
ChIJ6Xnl7a8C9YgRQxJrXNnpEuY,30301,doctor,East Point Primary Care,33.68122,-84.428477,,"1203 Cleveland Ave, East Point, GA 30344, USA",https://maps.google.com/?cid=16578570298071913027,(404) 684-7111,
ChIJvUE79lD99IgRptnLWY1VZvM,30302,doctor,Airport Primary Care,33.6652504,-84.4286,,"3305 Bobby Brown Pkwy, Atlanta, GA 30344, USA",https://maps.google.com/?cid=17538799864426256806,(404) 806-8181,
ChIJtfP20lId9YgRMSKX1RlECAM,30304,doctor,Morehouse Comp Family Healthcare Center,33.680548,-84.438424,http://www.morehousehealthcare.com/,"1513 Cleveland Ave, Atlanta, GA 30344, USA",https://maps.google.com/?cid=218499459675791921,(404) 752-1000,
ChIJM5D2es0R9YgRemxrUVZOMNw,30339,health,Light Shaman Healing,33.897161,-84.4468186,http://www.lightshamanhealing.com/,"6640 Akers Mill Rd SE, Atlanta, GA 30339, USA",https://maps.google.com/?cid=15866267619866406010,(404) 409-5925,
ChIJy870Sppt9YgRvXfUakJatb0,30188,doctor,North Fulton Primary Care,34.0819007,-84.452792,,"14205 GA-92 #105, Woodstock, GA 30188, USA",https://maps.google.com/?cid=13669931485259659197,(678) 293-7854,"Monday: 8:00 AM  5:00 PM, Tuesday: 8:00 AM  5:00 PM, Wednesday: 8:00 AM  5:00 PM, Thursday: 8:00 AM  5:00 PM, Friday: 8:00 AM  2:00 PM, Saturday: Closed, Sunday: Closed"
ChIJ3SUplG4Q9YgR3ftyAx1vS_o,30339,doctor,"Saju I Mathew , MD",33.8662,-84.464964,http://www.piedmont.org/find-a-doctor/doctor-profile?id=3949,"3020 Paces Mill Rd SE, Atlanta, GA 30339, USA",https://maps.google.com/?cid=18035631303137885149,(770) 437-4200,
ChIJ_5MKAkwQ9YgRxZETgsmRrd4,30339,insurance_agency,Coventry Health Care of GA Inc,33.8898448,-84.4652973,http://chcgeorgia.coventryhealthcare.com/,"1100 Cir 75 Pkwy SE # 1400, Atlanta, GA 30339, USA",https://maps.google.com/?cid=16045641342047719877,(678) 202-2100,"Monday: 8:00 AM  6:00 PM, Tuesday: 8:00 AM  6:00 PM, Wednesday: 8:00 AM  6:00 PM, Thursday: 8:00 AM  6:00 PM, Friday: 8:00 AM  6:00 PM, Saturday: Closed, Sunday: Closed"
ChIJBypOc-Qc9YgRCxaT2vLpqps,30301,doctor,Cascade Primary Care Group,33.723386,-84.46586,,"2391 Benjamin E Mays Dr SW # B, Atlanta, GA 30311, USA",https://maps.google.com/?cid=11217035051178071563,(404) 755-2291,
ChIJUzZgdeQc9YgRZFGCf3_4-VI,30311,doctor,Mlk Primary Care Group,33.723386,-84.46586,,"2391 Benjamin E Mays Dr SW, Atlanta, GA 30311, USA",https://maps.google.com/?cid=5979083206794826084,(404) 755-5444,
ChIJjaZxo3Lj9IgRf80Qxm89VLI,30304,doctor,Premier Primary Care Center,33.605007,-84.47029,,"5536 Old National Hwy, Atlanta, GA 30349, USA",https://maps.google.com/?cid=12849963187068521855,(404) 766-1970,"Monday: 9:00 AM  6:00 PM, Tuesday: 9:00 AM  6:00 PM, Wednesday: 9:00 AM  6:00 PM, Thursday: 9:00 AM  6:00 PM, Friday: Closed, Saturday: Closed, Sunday: Closed"
ChIJMQit-g7j9IgR5VpMkNuyoXA,31150,hospital,Swift Health Urgent Care Center,33.613921,-84.47295,http://www.swifturgentcare.com/,"5185 Old National Hwy, College Park, GA 30349, USA",https://maps.google.com/?cid=8115964659586849509,(404) 763-9300,"Monday: 9:00 AM  7:00 PM, Tuesday: 9:00 AM  7:00 PM, Wednesday: 11:00 AM  7:00 PM, Thursday: 9:00 AM  7:00 PM, Friday: 9:00 AM  7:00 PM, Saturday: 9:00 AM  5:00 PM, Sunday: Closed"
ChIJi1BQUYcQ9YgRGbF1ciwL0cY,30339,doctor,"Dr. Anita R. Smith, MD",33.8576719,-84.4807167,http://www.viningsmed.com/,"2255 Cumberland Pkwy SE, Atlanta, GA 30339, USA",https://maps.google.com/?cid=14326244175169040665,(770) 955-9477,
ChIJdSohlU1s9YgRB3o3dNBESio,30004,doctor,Woodstock Primary Care,34.0863623,-84.4840519,http://www.woodstockmd.com/,"3353 Trickum Rd #201, Woodstock, GA 30188, USA",https://maps.google.com/?cid=3047323759963240967,(770) 591-4777,"Monday: 9:00 AM  5:00 PM, Tuesday: 9:00 AM  5:00 PM, Wednesday: 9:00 AM  5:00 PM, Thursday: 9:00 AM  5:00 PM, Friday: 9:00 AM  5:00 PM, Saturday: Closed, Sunday: Closed"
ChIJY_Y-Oj0c9YgRIEgAl4QsHvk,30302,doctor,Southwest Primary Care Center,33.739532,-84.51006,,"550 Fairburn Rd SW # B1, Atlanta, GA 30331, USA",https://maps.google.com/?cid=17950834112726059040,(404) 505-5247,
ChIJrWI5rjHj9IgRqKjon28FrWc,30304,doctor,Dr. Kay Oso,33.6608326,-84.5128656,http://meridianinternalmed.org/,"3890 Redwine Rd SW #210, Atlanta, GA 30331, USA",https://maps.google.com/?cid=7470633333859854504,(404) 691-6688,"Monday: 8:00 AM  5:00 PM, Tuesday: 8:00 AM  5:00 PM, Wednesday: 8:00 AM  5:00 PM, Thursday: 11:00 AM  7:00 PM, Friday: 8:00 AM  5:00 PM, Saturday: 9:00 AM  1:00 PM, Sunday: Closed"
ChIJSXg4YBri9IgR_ytQkneImr4,30304,dentist,Camp Creek Smiles,33.6608794,-84.5128768,http://www.campcreeksmiles.com/,"3890 Redwine Rd SW # 108, Atlanta, GA 30331, USA",https://maps.google.com/?cid=13734440060756962303,(404) 344-7645,"Monday: 8:00 AM  5:00 PM, Tuesday: 8:00 AM  5:00 PM, Wednesday: 8:00 AM  5:00 PM, Thursday: 8:00 AM  5:00 PM, Friday: 8:00 AM  12:00 PM, Saturday: Closed, Sunday: Closed"
ChIJSXg4YBri9IgRahPcOYmE8p4,30304,doctor,"Camp Creek Primary Care - Charles Clopton, Jr., MD",33.6609048,-84.5129282,,"3890 Redwine Rd SW #100, Atlanta, GA 30331, USA",https://maps.google.com/?cid=11453362527272702826,(404) 349-2273,
ChIJf6IDqxvi9IgRiovi7kbcD14,30331,hospital,Atlanta Medical Center Primary Care Physicians at Camp Creek,33.6613677,-84.5137396,http://www.atlantamedcenter.com/,"3886 Princeton Lakes Way, Atlanta, GA 30331, USA",https://maps.google.com/?cid=6777878161429531530,(404) 530-3070,
ChIJ4wAYPckQ9YgR0BLL4bYCl2o,30339,doctor,"James Harvey, MD",33.8799826,-84.5151132,,"1314 Concord Rd SE, Smyrna, GA 30080, USA",https://maps.google.com/?cid=7680610673999155920,(770) 333-8889,"Monday: 8:30 AM  5:00 PM, Tuesday: 7:30 AM  5:00 AM, Wednesday: 7:30 AM  5:00 AM, Thursday: 8:30 AM  5:00 PM, Friday: 7:30 AM  1:00 PM, Saturday: Closed, Sunday: Closed"
ChIJh7s9eO5r9YgRIGFoGzKRMKQ,30004,hospital,Towne Lake Primary Care Family Medicine,34.1032048,-84.5339153,http://www.townelakepc.com/index.html,"900 Towne Lake Pkwy #410, Woodstock, GA 30189, USA",https://maps.google.com/?cid=11831115865496510752,(678) 445-0819,
ChIJc-CBW0QX9YgRAAwH62OvJKE,30325,health,WellStar Medical Group Smyrna Primary Care Center,33.8687277,-84.5360582,http://www.wellstar.org/locations/pages/practice-detail.aspx?lid=d6178e15-d22b-483e-954a-009afc720a90,"562 Concord Rd SE, Smyrna, GA 30082, USA",https://maps.google.com/?cid=11611598582947712000,(770) 384-9830,
ChIJjQ5_jrTm9IgRd460V6KHr2c,30336,doctor,Airport Primary Care LLC,33.5846443,-84.5389455,,"4651 Flat Shoals Rd, Union City, GA 30291, USA",https://maps.google.com/?cid=7471339438156844663,(770) 964-3511,
ChIJuSdOLbTm9IgRGbvVmHWP0zU,30213,point_of_interest,Southside Medical Care,33.5819792,-84.540375,http://www.southsidemedicalcare.com/,"6325 Shannon Pkwy, Union City, GA 30291, USA",https://maps.google.com/?cid=3878601439334218521,(770) 964-1400,
ChIJgXGhjM1r9YgR6dTZc225Btk,30005,doctor,Scott Marvetta A MD,34.110501,-84.5602872,http://www.nffm.md/physicians.php,"250 Parkbrooke Pl # 200, Woodstock, GA 30189, USA",https://maps.google.com/?cid=15638390635836855529,(770) 928-0016,
ChIJRZtwK9Br9YgRzcwHqraLtlg,30188,doctor,North Atlanta Primary Care,34.1113143,-84.5607889,http://www.napc.md/,"250 Parkbrooke Pl, Woodstock, GA 30189, USA",https://maps.google.com/?cid=6392450337751944397,(770) 442-1911,"Monday: 7:30 AM  5:00 PM, Tuesday: 7:30 AM  5:00 PM, Wednesday: 7:30 AM  5:00 PM, Thursday: 7:30 AM  5:00 PM, Friday: 7:30 AM  5:00 PM, Saturday: Closed, Sunday: Closed"
ChIJASju9gQf9YgR2kJwBDHqO9E,30336,physiotherapist,Concentra Urgent Care,33.730202,-84.5706809,http://www.concentra.com/?utm_source=Yext&utm_medium=Listings&utm_campaign=Yext%20listing,"5670 Fulton Industrial Blvd SW, Atlanta, GA 30336, USA",https://maps.google.com/?cid=15076901673801630426,(404) 344-3930,"Monday: 7:30 AM  8:00 PM, Tuesday: 7:30 AM  8:00 PM, Wednesday: 7:30 AM  8:00 PM, Thursday: 7:30 AM  8:00 PM, Friday: 7:30 AM  8:00 PM, Saturday: Closed, Sunday: Closed"
ChIJXYycywEY9YgRJz6QLEiomWU,30309,doctor,WellStar Medical Group South Cobb Primary Care Center,33.8554862,-84.6036936,http://www.wellstar.org/locations/pages/practice-detail.aspx?lid=9FF8D6AB-F424-4B17-91B2-489D39BE2C43,"Internal Medicine, 1680 Hospital S Dr, Austell, GA 30106, USA",https://maps.google.com/?cid=7321067697206214183,(678) 945-2100,
ChIJndmNJwYi9YgRW6zAFAKCmYM,30336,doctor,Atlanta West Healthcare,33.779435,-84.609418,http://www.atlantawestprimarycare.com/,"939 Thornton Rd, Lithia Springs, GA 30122, USA",https://maps.google.com/?cid=9482753435855006811,(770) 948-5400,
